SIRION PATHFINDER-2     
1 43759U 18099B   26170.56020073  .00004043  00000+0  22262-3 0  9991
2 43759  97.4247 219.5613 0007156 294.5243  65.5242 15.14564980412989
CORVUS BC4              
1 43767U 18099K   26170.37151364  .00003156  00000+0  18477-3 0  9994
2 43767  97.4063 213.2881 0008069   5.8995 354.2330 15.12510338412738
M2 PATHFINDER           
1 45727U 20037E   26170.57390124  .00001202  00000+0  89866-4 0  9999
2 45727  97.8143   1.8325 0012507 139.3083 220.9080 15.04681666325857
NETSAT-4                
1 46504U 20068U   26170.00438907  .00013363  00000+0  29599-3 0  9994
2 46504  97.8604 178.3912 0003622 329.8172  30.2865 15.43912955316054
NETSAT-3                
1 46505U 20068V   26170.46608847  .00016430  00000+0  37774-3 0  9999
2 46505  97.8655 177.1036 0003888 352.2858   7.8328 15.42747216316037
NETSAT-1                
1 46506U 20068W   26170.48271503  .00010074  00000+0  30211-3 0  9994
2 46506  97.8748 171.4257 0004781  25.4867 334.6610 15.34687263315653
NETSAT-2                
1 46507U 20068X   26170.55970238  .00019174  00000+0  39346-3 0  9992
2 46507  97.8616 178.8939 0003148  19.0109 341.1256 15.46083868316104
GREENCUBE (IO-117)      
1 53109U 22080E   26170.36320786 -.00000003  00000+0  00000+0 0  9993
2 53109  70.1443 297.4882 0008913 289.1275  70.8419  6.42583239 92208
SITRO-AIS 5 (KATYS)     
1 57176U 23091L   26170.55609285  .00009596  00000+0  33736-3 0  9990
2 57176  97.5056 234.4783 0012725  96.2389 264.0301 15.29501818164709
SITRO-AIS 6 (CHIRKIN)   
1 57192U 23091AC  26170.54051036  .00007800  00000+0  30576-3 0  9997
2 57192  97.5062 233.5691 0013095  99.2926 260.9794 15.25970680164640
SITRO-AIS 8 (ANOKHIN)   
1 57193U 23091AD  26170.56897241  .00011798  00000+0  38120-3 0  9990
2 57193  97.5051 236.0896 0011740  92.7843 267.4742 15.32190853164813
SITRO-AIS 7 (FARTUSHNIY)
1 57194U 23091AE  26170.47855265  .00007376  00000+0  29202-3 0  9999
2 57194  97.5059 233.3307 0012957 100.4109 259.8590 15.25656984164621
