
    {
        "ARG_OF_PERICENTER": 294.5243,
        "BSTAR": 0.00022261507,
        "CLASSIFICATION_TYPE": "U",
        "ECCENTRICITY": 0.00071567,
        "ELEMENT_SET_NO": 999,
        "EPHEMERIS_TYPE": 0,
        "EPOCH": "2026-06-19T13:26:41.343072",
        "INCLINATION": 97.4247,
        "MEAN_ANOMALY": 65.5242,
        "MEAN_MOTION": 15.1456498,
        "MEAN_MOTION_DDOT": 0,
        "MEAN_MOTION_DOT": 4.043e-05,
        "NORAD_CAT_ID": 43759,
        "OBJECT_ID": "2018-099B",
        "OBJECT_NAME": "SIRION PATHFINDER-2",
        "RA_OF_ASC_NODE": 219.5613,
        "REV_AT_EPOCH": 41298
    },
    {
        "ARG_OF_PERICENTER": 5.8995,
        "BSTAR": 0.00018476874,
        "CLASSIFICATION_TYPE": "U",
        "ECCENTRICITY": 0.00080693,
        "ELEMENT_SET_NO": 999,
        "EPHEMERIS_TYPE": 0,
        "EPOCH": "2026-06-19T08:54:58.778496",
        "INCLINATION": 97.4063,
        "MEAN_ANOMALY": 354.233,
        "MEAN_MOTION": 15.12510338,
        "MEAN_MOTION_DDOT": 0,
        "MEAN_MOTION_DOT": 3.156e-05,
        "NORAD_CAT_ID": 43767,
        "OBJECT_ID": "2018-099K",
        "OBJECT_NAME": "CORVUS BC4",
        "RA_OF_ASC_NODE": 213.2881,
        "REV_AT_EPOCH": 41273
    },
    {
        "ARG_OF_PERICENTER": 139.3083,
        "BSTAR": 8.9866121e-05,
        "CLASSIFICATION_TYPE": "U",
        "ECCENTRICITY": 0.00125074,
        "ELEMENT_SET_NO": 999,
        "EPHEMERIS_TYPE": 0,
        "EPOCH": "2026-06-19T13:46:25.067136",
        "INCLINATION": 97.8143,
        "MEAN_ANOMALY": 220.908,
        "MEAN_MOTION": 15.04681666,
        "MEAN_MOTION_DDOT": 0,
        "MEAN_MOTION_DOT": 1.202e-05,
        "NORAD_CAT_ID": 45727,
        "OBJECT_ID": "2020-037E",
        "OBJECT_NAME": "M2 PATHFINDER",
        "RA_OF_ASC_NODE": 1.8325,
        "REV_AT_EPOCH": 32585
    },
    {
        "ARG_OF_PERICENTER": 329.8172,
        "BSTAR": 0.00029598827,
        "CLASSIFICATION_TYPE": "U",
        "ECCENTRICITY": 0.00036223,
        "ELEMENT_SET_NO": 999,
        "EPHEMERIS_TYPE": 0,
        "EPOCH": "2026-06-19T00:06:19.215648",
        "INCLINATION": 97.8604,
        "MEAN_ANOMALY": 30.2865,
        "MEAN_MOTION": 15.43912955,
        "MEAN_MOTION_DDOT": 0,
        "MEAN_MOTION_DOT": 0.00013363,
        "NORAD_CAT_ID": 46504,
        "OBJECT_ID": "2020-068U",
        "OBJECT_NAME": "NETSAT-4",
        "RA_OF_ASC_NODE": 178.3912,
        "REV_AT_EPOCH": 31605
    },
    {
        "ARG_OF_PERICENTER": 352.2858,
        "BSTAR": 0.00037774208,
        "CLASSIFICATION_TYPE": "U",
        "ECCENTRICITY": 0.00038889,
        "ELEMENT_SET_NO": 999,
        "EPHEMERIS_TYPE": 0,
        "EPOCH": "2026-06-19T11:11:10.043808",
        "INCLINATION": 97.8655,
        "MEAN_ANOMALY": 7.8328,
        "MEAN_MOTION": 15.42747216,
        "MEAN_MOTION_DDOT": 0,
        "MEAN_MOTION_DOT": 0.0001643,
        "NORAD_CAT_ID": 46505,
        "OBJECT_ID": "2020-068V",
        "OBJECT_NAME": "NETSAT-3",
        "RA_OF_ASC_NODE": 177.1036,
        "REV_AT_EPOCH": 31603
    },
    {
        "ARG_OF_PERICENTER": 25.4867,
        "BSTAR": 0.00030210764,
        "CLASSIFICATION_TYPE": "U",
        "ECCENTRICITY": 0.00047818,
        "ELEMENT_SET_NO": 999,
        "EPHEMERIS_TYPE": 0,
        "EPOCH": "2026-06-19T11:35:06.578592",
        "INCLINATION": 97.8748,
        "MEAN_ANOMALY": 334.661,
        "MEAN_MOTION": 15.34687263,
        "MEAN_MOTION_DDOT": 0,
        "MEAN_MOTION_DOT": 0.00010074,
        "NORAD_CAT_ID": 46506,
        "OBJECT_ID": "2020-068W",
        "OBJECT_NAME": "NETSAT-1",
        "RA_OF_ASC_NODE": 171.4257,
        "REV_AT_EPOCH": 31565
    },
    {
        "ARG_OF_PERICENTER": 19.0109,
        "BSTAR": 0.000393457,
        "CLASSIFICATION_TYPE": "U",
        "ECCENTRICITY": 0.00031486,
        "ELEMENT_SET_NO": 999,
        "EPHEMERIS_TYPE": 0,
        "EPOCH": "2026-06-19T13:25:58.285632",
        "INCLINATION": 97.8616,
        "MEAN_ANOMALY": 341.1256,
        "MEAN_MOTION": 15.46083868,
        "MEAN_MOTION_DDOT": 0,
        "MEAN_MOTION_DOT": 0.00019174,
        "NORAD_CAT_ID": 46507,
        "OBJECT_ID": "2020-068X",
        "OBJECT_NAME": "NETSAT-2",
        "RA_OF_ASC_NODE": 178.8939,
        "REV_AT_EPOCH": 31610
    },
    {
        "ARG_OF_PERICENTER": 289.1275,
        "BSTAR": 0,
        "CLASSIFICATION_TYPE": "U",
        "ECCENTRICITY": 0.00089135,
        "ELEMENT_SET_NO": 999,
        "EPHEMERIS_TYPE": 0,
        "EPOCH": "2026-06-19T08:43:01.159104",
        "INCLINATION": 70.1443,
        "MEAN_ANOMALY": 70.8419,
        "MEAN_MOTION": 6.42583239,
        "MEAN_MOTION_DDOT": 0,
        "MEAN_MOTION_DOT": -3e-08,
        "NORAD_CAT_ID": 53109,
        "OBJECT_ID": "2022-080E",
        "OBJECT_NAME": "GREENCUBE (IO-117)",
        "RA_OF_ASC_NODE": 297.4882,
        "REV_AT_EPOCH": 9220
    },
    {
        "ARG_OF_PERICENTER": 96.2389,
        "BSTAR": 0.00033735987,
        "CLASSIFICATION_TYPE": "U",
        "ECCENTRICITY": 0.00127252,
        "ELEMENT_SET_NO": 999,
        "EPHEMERIS_TYPE": 0,
        "EPOCH": "2026-06-19T13:20:46.422240",
        "INCLINATION": 97.5056,
        "MEAN_ANOMALY": 264.0301,
        "MEAN_MOTION": 15.29501818,
        "MEAN_MOTION_DDOT": 0,
        "MEAN_MOTION_DOT": 9.596e-05,
        "NORAD_CAT_ID": 57176,
        "OBJECT_ID": "2023-091L",
        "OBJECT_NAME": "SITRO-AIS 5 (KATYS)",
        "RA_OF_ASC_NODE": 234.4783,
        "REV_AT_EPOCH": 16470
    },
    {
        "ARG_OF_PERICENTER": 99.2926,
        "BSTAR": 0.00030575762,
        "CLASSIFICATION_TYPE": "U",
        "ECCENTRICITY": 0.00130956,
        "ELEMENT_SET_NO": 999,
        "EPHEMERIS_TYPE": 0,
        "EPOCH": "2026-06-19T12:58:20.095104",
        "INCLINATION": 97.5062,
        "MEAN_ANOMALY": 260.9794,
        "MEAN_MOTION": 15.2597068,
        "MEAN_MOTION_DDOT": 0,
        "MEAN_MOTION_DOT": 7.8e-05,
        "NORAD_CAT_ID": 57192,
        "OBJECT_ID": "2023-091AC",
        "OBJECT_NAME": "SITRO-AIS 6 (CHIRKIN)",
        "RA_OF_ASC_NODE": 233.5691,
        "REV_AT_EPOCH": 16464
    },
    {
        "ARG_OF_PERICENTER": 92.7843,
        "BSTAR": 0.00038120346,
        "CLASSIFICATION_TYPE": "U",
        "ECCENTRICITY": 0.00117409,
        "ELEMENT_SET_NO": 999,
        "EPHEMERIS_TYPE": 0,
        "EPOCH": "2026-06-19T13:39:19.216224",
        "INCLINATION": 97.5051,
        "MEAN_ANOMALY": 267.4742,
        "MEAN_MOTION": 15.32190853,
        "MEAN_MOTION_DDOT": 0,
        "MEAN_MOTION_DOT": 0.00011798,
        "NORAD_CAT_ID": 57193,
        "OBJECT_ID": "2023-091AD",
        "OBJECT_NAME": "SITRO-AIS 8 (ANOKHIN)",
        "RA_OF_ASC_NODE": 236.0896,
        "REV_AT_EPOCH": 16481
    },
    {
        "ARG_OF_PERICENTER": 100.4109,
        "BSTAR": 0.00029202383,
        "CLASSIFICATION_TYPE": "U",
        "ECCENTRICITY": 0.00129573,
        "ELEMENT_SET_NO": 999,
        "EPHEMERIS_TYPE": 0,
        "EPOCH": "2026-06-19T11:29:06.948960",
        "INCLINATION": 97.5059,
        "MEAN_ANOMALY": 259.859,
        "MEAN_MOTION": 15.25656984,
        "MEAN_MOTION_DDOT": 0,
        "MEAN_MOTION_DOT": 7.376e-05,
        "NORAD_CAT_ID": 57194,
        "OBJECT_ID": "2023-091AE",
        "OBJECT_NAME": "SITRO-AIS 7 (FARTUSHNIY)",
        "RA_OF_ASC_NODE": 233.3307,
        "REV_AT_EPOCH": 16462
    }